{
  "type": "FeatureCollection",
  "features": [
    {
      "type": "Feature",
      "properties": {
        "norad_id": 34571,
        "name": "COSMOS 2251 DEB",
        "group": "cosmos-2251-debris",
        "lat": 26.86099062589089,
        "lon": 171.14533893372874,
        "alt_km": 772.8073484719507,
        "timestamp": "2025-12-23T05:02:12.424486+00:00",
        "meta_object_name": "COSMOS 2251 DEB",
        "meta_object_id": "1993-036VH",
        "meta_epoch": "2025-12-21T21:25:20.768736",
        "meta_mean_motion": 14.4895116,
        "meta_eccentricity": 0.00652122,
        "meta_inclination": 74.039,
        "meta_ra_of_asc_node": 165.2791,
        "meta_arg_of_pericenter": 198.2553,
        "meta_mean_anomaly": 161.6266,
        "meta_ephemeris_type": 0,
        "meta_classification_type": "U",
        "meta_norad_cat_id": 34571,
        "meta_element_set_no": 999,
        "meta_rev_at_epoch": 87426,
        "meta_bstar": 0.0025690074,
        "meta_mean_motion_dot": 9.985e-05,
        "meta_mean_motion_ddot": 0,
        "tle_line1": "1 34571U 93036VH  25355.89260149  .00009985  00000+0  25690-2 0  9994",
        "tle_line2": "2 34571  74.0390 165.2791 0065212 198.2553 161.6266 14.48951160874269"
      },
      "geometry": {
        "type": "Point",
        "coordinates": [
          171.14533893372874,
          26.86099062589089
        ]
      }
    },
    {
      "type": "Feature",
      "properties": {
        "norad_id": 34572,
        "name": "COSMOS 2251 DEB",
        "group": "cosmos-2251-debris",
        "lat": -58.64053440391708,
        "lon": 67.74523999072878,
        "alt_km": 759.5484460958769,
        "timestamp": "2025-12-23T05:02:12.424496+00:00",
        "meta_object_name": "COSMOS 2251 DEB",
        "meta_object_id": "1993-036VJ",
        "meta_epoch": "2025-12-22T08:04:06.005568",
        "meta_mean_motion": 14.50188694,
        "meta_eccentricity": 0.00616659,
        "meta_inclination": 74.0115,
        "meta_ra_of_asc_node": 97.4527,
        "meta_arg_of_pericenter": 169.5509,
        "meta_mean_anomaly": 247.8934,
        "meta_ephemeris_type": 0,
        "meta_classification_type": "U",
        "meta_norad_cat_id": 34572,
        "meta_element_set_no": 999,
        "meta_rev_at_epoch": 87517,
        "meta_bstar": 0.0026494819,
        "meta_mean_motion_dot": 0.00010544,
        "meta_mean_motion_ddot": 0,
        "tle_line1": "1 34572U 93036VJ  25356.33618062  .00010544  00000+0  26495-2 0  9993",
        "tle_line2": "2 34572  74.0115  97.4527 0061665 169.5509 247.8934 14.50188694875175"
      },
      "geometry": {
        "type": "Point",
        "coordinates": [
          67.74523999072878,
          -58.64053440391708
        ]
      }
    },
    {
      "type": "Feature",
      "properties": {
        "norad_id": 34574,
        "name": "COSMOS 2251 DEB",
        "group": "cosmos-2251-debris",
        "lat": -54.2420586490092,
        "lon": -133.77814053644852,
        "alt_km": 710.6630693819807,
        "timestamp": "2025-12-23T05:02:12.424505+00:00",
        "meta_object_name": "COSMOS 2251 DEB",
        "meta_object_id": "1993-036VL",
        "meta_epoch": "2025-12-22T03:43:37.953696",
        "meta_mean_motion": 14.70698881,
        "meta_eccentricity": 0.00671818,
        "meta_inclination": 74.0679,
        "meta_ra_of_asc_node": 24.8931,
        "meta_arg_of_pericenter": 42.8565,
        "meta_mean_anomaly": 13.7462,
        "meta_ephemeris_type": 0,
        "meta_classification_type": "U",
        "meta_norad_cat_id": 34574,
        "meta_element_set_no": 999,
        "meta_rev_at_epoch": 88917,
        "meta_bstar": 0.00094180568,
        "meta_mean_motion_dot": 5.915e-05,
        "meta_mean_motion_ddot": 0,
        "tle_line1": "1 34574U 93036VL  25356.15530039  .00005915  00000+0  94181-3 0  9996",
        "tle_line2": "2 34574  74.0679  24.8931 0067181  42.8565  13.7462 14.70698881889176"
      },
      "geometry": {
        "type": "Point",
        "coordinates": [
          -133.77814053644852,
          -54.2420586490092
        ]
      }
    },
    {
      "type": "Feature",
      "properties": {
        "norad_id": 34576,
        "name": "COSMOS 2251 DEB",
        "group": "cosmos-2251-debris",
        "lat": -4.7956153858681105,
        "lon": 116.9855296507747,
        "alt_km": 711.9252287351392,
        "timestamp": "2025-12-23T05:02:12.424515+00:00",
        "meta_object_name": "COSMOS 2251 DEB",
        "meta_object_id": "1993-036VN",
        "meta_epoch": "2025-12-22T07:44:16.997280",
        "meta_mean_motion": 14.55488291,
        "meta_eccentricity": 0.00082401,
        "meta_inclination": 74.0347,
        "meta_ra_of_asc_node": 120.0424,
        "meta_arg_of_pericenter": 257.8353,
        "meta_mean_anomaly": 129.0853,
        "meta_ephemeris_type": 0,
        "meta_classification_type": "U",
        "meta_norad_cat_id": 34576,
        "meta_element_set_no": 999,
        "meta_rev_at_epoch": 88606,
        "meta_bstar": 0.00083691505,
        "meta_mean_motion_dot": 3.617e-05,
        "meta_mean_motion_ddot": 0,
        "tle_line1": "1 34576U 93036VN  25356.32241895  .00003617  00000+0  83692-3 0  9998",
        "tle_line2": "2 34576  74.0347 120.0424 0008240 257.8353 129.0853 14.55488291886065"
      },
      "geometry": {
        "type": "Point",
        "coordinates": [
          116.9855296507747,
          -4.7956153858681105
        ]
      }
    },
    {
      "type": "Feature",
      "properties": {
        "norad_id": 34579,
        "name": "COSMOS 2251 DEB",
        "group": "cosmos-2251-debris",
        "lat": -10.726801550284259,
        "lon": 27.505885885052656,
        "alt_km": 741.5165671321229,
        "timestamp": "2025-12-23T05:02:12.424525+00:00",
        "meta_object_name": "COSMOS 2251 DEB",
        "meta_object_id": "1993-036VR",
        "meta_epoch": "2025-12-22T18:45:53.200800",
        "meta_mean_motion": 14.45333715,
        "meta_eccentricity": 0.00275078,
        "meta_inclination": 74.0515,
        "meta_ra_of_asc_node": 205.1972,
        "meta_arg_of_pericenter": 272.3481,
        "meta_mean_anomaly": 212.941,
        "meta_ephemeris_type": 0,
        "meta_classification_type": "U",
        "meta_norad_cat_id": 34579,
        "meta_element_set_no": 999,
        "meta_rev_at_epoch": 88319,
        "meta_bstar": 0.00031216852,
        "meta_mean_motion_dot": 1.075e-05,
        "meta_mean_motion_ddot": 0,
        "tle_line1": "1 34579U 93036VR  25356.78186575  .00001075  00000+0  31217-3 0  9996",
        "tle_line2": "2 34579  74.0515 205.1972 0027507 272.3481 212.9410 14.45333715883190"
      },
      "geometry": {
        "type": "Point",
        "coordinates": [
          27.505885885052656,
          -10.726801550284259
        ]
      }
    },
    {
      "type": "Feature",
      "properties": {
        "norad_id": 34582,
        "name": "COSMOS 2251 DEB",
        "group": "cosmos-2251-debris",
        "lat": 52.62457455515507,
        "lon": -85.06092527700876,
        "alt_km": 722.2024193391298,
        "timestamp": "2025-12-23T05:02:12.424535+00:00",
        "meta_object_name": "COSMOS 2251 DEB",
        "meta_object_id": "1993-036VU",
        "meta_epoch": "2025-12-22T17:08:14.927424",
        "meta_mean_motion": 14.43373223,
        "meta_eccentricity": 0.0048415,
        "meta_inclination": 74.0196,
        "meta_ra_of_asc_node": 253.8278,
        "meta_arg_of_pericenter": 1.8359,
        "meta_mean_anomaly": 358.2965,
        "meta_ephemeris_type": 0,
        "meta_classification_type": "U",
        "meta_norad_cat_id": 34582,
        "meta_element_set_no": 999,
        "meta_rev_at_epoch": 88091,
        "meta_bstar": 0.00069321765,
        "meta_mean_motion_dot": 2.346e-05,
        "meta_mean_motion_ddot": 0,
        "tle_line1": "1 34582U 93036VU  25356.71406166  .00002346  00000+0  69322-3 0  9994",
        "tle_line2": "2 34582  74.0196 253.8278 0048415   1.8359 358.2965 14.43373223880910"
      },
      "geometry": {
        "type": "Point",
        "coordinates": [
          -85.06092527700876,
          52.62457455515507
        ]
      }
    },
    {
      "type": "Feature",
      "properties": {
        "norad_id": 34588,
        "name": "COSMOS 2251 DEB",
        "group": "cosmos-2251-debris",
        "lat": 57.0952197931106,
        "lon": -84.90094117998784,
        "alt_km": 752.8512267879714,
        "timestamp": "2025-12-23T05:02:12.424545+00:00",
        "meta_object_name": "COSMOS 2251 DEB",
        "meta_object_id": "1993-036WA",
        "meta_epoch": "2025-12-22T20:46:45.349824",
        "meta_mean_motion": 14.420499,
        "meta_eccentricity": 0.00192987,
        "meta_inclination": 74.0427,
        "meta_ra_of_asc_node": 249.492,
        "meta_arg_of_pericenter": 301.1565,
        "meta_mean_anomaly": 134.1031,
        "meta_ephemeris_type": 0,
        "meta_classification_type": "U",
        "meta_norad_cat_id": 34588,
        "meta_element_set_no": 999,
        "meta_rev_at_epoch": 88096,
        "meta_bstar": 0.00038375167,
        "meta_mean_motion_dot": 1.236e-05,
        "meta_mean_motion_ddot": 0,
        "tle_line1": "1 34588U 93036WA  25356.86580266  .00001236  00000+0  38375-3 0  9991",
        "tle_line2": "2 34588  74.0427 249.4920 0019298 301.1565 134.1031 14.42049900880961"
      },
      "geometry": {
        "type": "Point",
        "coordinates": [
          -84.90094117998784,
          57.0952197931106
        ]
      }
    }
  ]
}